NORAD_CAT_ID,OBJECT_NAME,OBJECT_TYPE,EPOCH,MEAN_MOTION,ECCENTRICITY,INCLINATION,RA_OF_ASC_NODE,ARG_OF_PERICENTER,MEAN_ANOMALY,BSTAR,MEAN_MOTION_DOT,MEAN_MOTION_DDOT,TLE_LINE0,TLE_LINE1,TLE_LINE2,SEMIMAJOR_AXIS,PERIOD,APOGEE,PERIGEE,DECAYED
54064.0,STARLINK-5172,PAYLOAD,2023-11-14 05:11:25,15.08840302,0.0001358,53.2147,139.2645,91.4867,268.6281,4.2922e-05,3.95e-06,0.0,0 STARLINK-5172,1 54064U 22136P   23318.21627306  .00000395  00000-0  42922-4 0  9997,2 54064  53.2147 139.2645 0001358  91.4867 268.6281 15.08840302 59687,6917.879,95.438,540.684,538.805,0.0
54064.0,STARLINK-5172,PAYLOAD,2023-11-14 21:05:17,15.08842096,0.0001421,53.2155,136.2916,94.6342,265.4813,5.6003e-05,6.03e-06,0.0,0 STARLINK-5172,1 54064U 22136P   23318.87867222  .00000603  00000-0  56003-4 0  9999,2 54064  53.2155 136.2916 0001421  94.6342 265.4813 15.08842096 59787,6917.874,95.437,540.722,538.756,0.0
54064.0,STARLINK-5172,PAYLOAD,2023-11-15 11:23:45,15.08841024,0.000135,53.2148,133.6144,91.1212,268.9935,5.2739e-05,5.52e-06,0.0,0 STARLINK-5172,1 54064U 22136P   23319.47483271  .00000552  00000-0  52739-4 0  9999,2 54064  53.2148 133.6144 0001350  91.1212 268.9935 15.08841024 59875,6917.877,95.437,540.676,538.808,0.0
54064.0,STARLINK-5172,PAYLOAD,2023-11-16 11:14:32,15.08839858,0.000135,53.215,129.1536,89.715,270.3996,6.3978e-05,7.3e-06,0.0,0 STARLINK-5172,1 54064U 22136P   23320.46843480  .00000730  00000-0  63978-4 0  9997,2 54064  53.2150 129.1536 0001350  89.7150 270.3996 15.08839858 60505,6917.881,95.438,540.68,538.812,0.0
54064.0,STARLINK-5172,PAYLOAD,2023-11-16 17:36:05,15.08841551,0.0001354,53.2164,127.9641,90.6157,269.499,7.7788e-05,9.5e-06,0.0,0 STARLINK-5172,1 54064U 22136P   23320.73339515  .00000950  00000-0  77788-4 0  9994,2 54064  53.2164 127.9641 0001354  90.6157 269.4990 15.08841551 60062,6917.876,95.437,540.677,538.804,0.0
54064.0,STARLINK-5172,PAYLOAD,2023-11-17 04:43:47,15.0884086,0.0001417,53.2165,125.8832,89.1413,270.9742,6.9368e-05,8.16e-06,0.0,0 STARLINK-5172,1 54064U 22136P   23321.19707592  .00000816  00000-0  69368-4 0  9995,2 54064  53.2165 125.8832 0001417  89.1413 270.9742 15.08840860 60132,6917.878,95.438,540.723,538.762,0.0
54064.0,STARLINK-5172,PAYLOAD,2023-11-17 17:26:52,15.08841534,0.0001401,53.2159,123.5036,91.6337,268.4815,8.1994e-05,1.017e-05,0.0,0 STARLINK-5172,1 54064U 22136P   23321.72699462  .00001017  00000-0  81994-4 0  9993,2 54064  53.2159 123.5036 0001401  91.6337 268.4815 15.08841534 60695,6917.876,95.437,540.71,538.772,0.0
54064.0,STARLINK-5172,PAYLOAD,2023-11-18 20:28:25,15.08840211,0.000134,53.2165,118.4482,93.3445,266.77,6.2817e-05,7.12e-06,0.0,0 STARLINK-5172,1 54064U 22136P   23322.85307549  .00000712  00000-0  62817-4 0  9994,2 54064  53.2165 118.4482 0001340  93.3445 266.7700 15.08840211 60382,6917.88,95.438,540.672,538.818,0.0
54064.0,STARLINK-5172,PAYLOAD,2023-11-19 13:57:40,15.0883921,0.0001362,53.2158,115.177,93.0234,267.0914,4.5097e-05,4.3e-06,0.0,0 STARLINK-5172,1 54064U 22136P   23323.58171777  .00000430  00000-0  45097-4 0  9995,2 54064  53.2158 115.1770 0001362  93.0234 267.0914 15.08839210 60495,6917.883,95.438,540.69,538.806,0.0
54064.0,STARLINK-5172,PAYLOAD,2023-11-19 17:08:26,15.08840787,0.000133,53.2153,114.5822,92.4464,267.668,5.9604e-05,6.61e-06,0.0,0 STARLINK-5172,1 54064U 22136P   23323.71419623  .00000661  00000-0  59604-4 0  9990,2 54064  53.2153 114.5822 0001330  92.4464 267.6680 15.08840787 60514,6917.878,95.438,540.663,538.823,0.0
54064.0,STARLINK-5172,PAYLOAD,2023-11-20 09:02:18,15.08839159,0.0001351,53.2171,111.6098,93.0757,267.039,5.1541e-05,5.32e-06,0.0,0 STARLINK-5172,1 54064U 22136P   23324.37659826  .00000532  00000-0  51541-4 0  9993,2 54064  53.2171 111.6098 0001351  93.0757 267.0390 15.08839159 61099,6917.883,95.438,540.683,538.813,0.0
54064.0,STARLINK-5172,PAYLOAD,2023-11-20 13:48:27,15.08837323,0.0001313,53.2169,110.7168,90.2469,269.8673,6.1041e-05,6.84e-06,0.0,0 STARLINK-5172,1 54064U 22136P   23324.57531929  .00000684  00000-0  61041-4 0  9992,2 54064  53.2169 110.7168 0001313  90.2469 269.8673 15.08837323 60646,6917.889,95.438,540.662,538.845,0.0
54064.0,STARLINK-5172,PAYLOAD,2023-11-20 16:59:13,15.08846692,0.000121,53.2175,110.1233,93.2747,266.8384,-1.9728e-05,-6.02e-06,0.0,0 STARLINK-5172,1 54064U 22136P   23324.70779639 -.00000602  00000-0 -19728-4 0  9996,2 54064  53.2175 110.1233 0001210  93.2747 266.8384 15.08846692 60665,6917.86,95.437,540.562,538.888,0.0
54064.0,STARLINK-5172,PAYLOAD,2023-11-21 13:39:14,15.08840999,0.0001233,53.2178,106.2576,92.0947,268.0186,7.1461e-05,8.5e-06,0.0,0 STARLINK-5172,1 54064U 22136P   23325.56891855  .00000850  00000-0  71461-4 0  9991,2 54064  53.2178 106.2576 0001233  92.0947 268.0186 15.08840999 60790,6917.877,95.437,540.595,538.889,0.0
54064.0,STARLINK-5172,PAYLOAD,2023-11-21 15:14:37,15.08842079,0.0001241,53.2176,105.9602,91.9752,268.1382,8.007e-05,9.87e-06,0.0,0 STARLINK-5172,1 54064U 22136P   23325.63515761  .00000987  00000-0  80070-4 0  9995,2 54064  53.2176 105.9602 0001241  91.9752 268.1382 15.08842079 60807,6917.874,95.437,540.598,538.881,0.0
54064.0,STARLINK-5172,PAYLOAD,2023-11-22 13:30:01,15.088459,0.0001244,53.2178,101.7971,87.8156,272.2978,0.00011718,1.578e-05,0.0,0 STARLINK-5172,1 54064U 22136P   23326.56251418  .00001578  00000-0  11718-3 0  9993,2 54064  53.2178 101.7971 0001244  87.8156 272.2978 15.08845900 60945,6917.862,95.437,540.588,538.867,0.0
54064.0,STARLINK-5172,PAYLOAD,2023-11-22 18:16:10,15.08855573,0.0001391,53.2164,100.9045,83.8016,276.3135,0.0001774,2.538e-05,0.0,0 STARLINK-5172,1 54064U 22136P   23326.76122831  .00002538  00000-0  17740-3 0  9999,2 54064  53.2164 100.9045 0001391  83.8016 276.3135 15.08855573 61451,6917.833,95.437,540.66,538.736,0.0
54064.0,STARLINK-5172,PAYLOAD,2023-11-23 13:20:48,15.08834949,0.0001771,53.217,97.3361,75.8889,284.23,-1.2872e-05,-4.93e-06,0.0,0 STARLINK-5172,1 54064U 22136P   23327.55612258 -.00000493  00000-0 -12872-4 0  9996,2 54064  53.2170  97.3361 0001771  75.8889 284.2300 15.08834949 61095,6917.896,95.438,540.986,538.536,0.0
54064.0,STARLINK-5172,PAYLOAD,2023-11-23 18:06:58,15.08838035,0.0001518,53.2181,96.4396,108.585,251.5307,-2.3814e-05,-6.67e-06,0.0,0 STARLINK-5172,1 54064U 22136P   23327.75483816 -.00000667  00000-0 -23814-4 0  9995,2 54064  53.2181  96.4396 0001518 108.5850 251.5307 15.08838035 61607,6917.886,95.438,540.802,538.701,0.0
54064.0,STARLINK-5172,PAYLOAD,2023-11-24 08:25:26,15.08834551,0.0001435,53.2172,93.7675,91.5103,268.6053,-0.00011356,-2.095e-05,0.0,0 STARLINK-5172,1 54064U 22136P   23328.35100573 -.00002095  00000-0 -11356-3 0  9992,2 54064  53.2172  93.7675 0001435  91.5103 268.6053 15.08834551 61692,6917.897,95.438,540.755,538.769,0.0
54064.0,STARLINK-5172,PAYLOAD,2023-11-24 13:11:36,15.08836519,0.0001419,53.217,92.878,93.1169,266.9985,-5.7168e-05,-1.198e-05,0.0,0 STARLINK-5172,1 54064U 22136P   23328.54972536 -.00001198  00000-0 -57168-4 0  9994,2 54064  53.2170  92.8780 0001419  93.1169 266.9985 15.08836519 61241,6917.891,95.438,540.738,538.774,0.0
54064.0,STARLINK-5172,PAYLOAD,2023-11-24 14:46:59,15.0883853,0.0001559,53.2169,92.58,84.2778,275.8392,-2.815e-05,-7.36e-06,0.0,0 STARLINK-5172,1 54064U 22136P   23328.61596297 -.00000736  00000-0 -28150-4 0  9994,2 54064  53.2169  92.5800 0001559  84.2778 275.8392 15.08838530 61258,6917.885,95.438,540.828,538.671,0.0
54064.0,STARLINK-5172,PAYLOAD,2023-11-25 14:37:45,15.0885311,0.0001551,53.2172,88.1194,103.8063,256.3101,0.00036895,5.591e-05,0.0,0 STARLINK-5172,1 54064U 22136P   23329.60956011  .00005591  00000-0  36895-3 0  9994,2 54064  53.2172  88.1194 0001551 103.8063 256.3101 15.08853110 61406,6917.84,95.437,540.778,538.632,0.0
54064.0,STARLINK-5172,PAYLOAD,2023-11-26 14:28:32,15.0885632,0.0001718,53.2184,83.6574,108.6378,251.48,0.00021755,3.177e-05,0.0,0 STARLINK-5172,1 54064U 22136P   23330.60315082  .00003177  00000-0  21755-3 0  9990,2 54064  53.2184  83.6574 0001718 108.6378 251.4800 15.08856320 61552,6917.831,95.437,540.884,538.507,0.0
54064.0,STARLINK-5172,PAYLOAD,2023-11-26 17:39:18,15.08859312,0.0001624,53.2181,83.0598,109.6716,250.4452,0.00021965,3.211e-05,0.0,0 STARLINK-5172,1 54064U 22136P   23330.73562737  .00003211  00000-0  21965-3 0  9997,2 54064  53.2181  83.0598 0001624 109.6716 250.4452 15.08859312 62054,6917.821,95.436,540.81,538.563,0.0
54064.0,STARLINK-5172,PAYLOAD,2023-11-27 11:08:33,15.08833086,0.0001898,53.2177,79.7796,121.1204,238.9975,-0.00026953,-4.574e-05,0.0,0 STARLINK-5172,1 54064U 22136P   23331.46428043 -.00004574  00000-0 -26953-3 0  9996,2 54064  53.2177  79.7796 0001898 121.1204 238.9975 15.08833086 62168,6917.902,95.438,541.08,538.454,0.0
54064.0,STARLINK-5172,PAYLOAD,2023-11-27 14:19:20,15.08827121,0.0001573,53.2188,79.198,96.0677,264.0494,-0.00027032,-4.586e-05,0.0,0 STARLINK-5172,1 54064U 22136P   23331.59676590 -.00004586  00000-0 -27032-3 0  9994,2 54064  53.2188  79.1980 0001573  96.0677 264.0494 15.08827121 61701,6917.92,95.438,540.873,538.697,0.0
54064.0,STARLINK-5172,PAYLOAD,2023-11-28 10:59:21,15.08837387,0.000158,53.2184,75.3287,63.292,296.8234,-9.0877e-06,-4.33e-06,0.0,0 STARLINK-5172,1 54064U 22136P   23332.45788422 -.00000433  00000-0 -90877-5 0  9994,2 54064  53.2184  75.3287 0001580  63.2920 296.8234 15.08837387 62318,6917.888,95.438,540.846,538.66,0.0
54064.0,STARLINK-5172,PAYLOAD,2023-11-28 14:10:06,15.08846962,0.0001556,53.2183,74.7341,95.2327,264.8842,0.00013287,1.828e-05,0.0,0 STARLINK-5172,1 54064U 22136P   23332.59035870  .00001828  00000-0  13287-3 0  9996,2 54064  53.2183  74.7341 0001556  95.2327 264.8842 15.08846962 61857,6917.859,95.437,540.801,538.648,0.0
54064.0,STARLINK-5172,PAYLOAD,2023-11-28 17:20:53,15.08848577,0.0001493,53.2181,74.1388,92.3845,267.7318,0.0001695,2.411e-05,0.0,0 STARLINK-5172,1 54064U 22136P   23332.72283808  .00002411  00000-0  16950-3 0  9996,2 54064  53.2181  74.1388 0001493  92.3845 267.7318 15.08848577 62353,6917.854,95.437,540.752,538.686,0.0
